COSMOS 2361             
1 25590U 98076A   09122.17293752  .00000030  00000-0  16792-4 0   242
2 25590  82.9325 149.0708 0030466 209.5378 150.4046 13.72702126518717
COSMOS 2378             
1 26818U 01023A   09121.67021917  .00000055  00000-0  42291-4 0   170
2 26818  82.9290 176.4177 0032796 177.5555 182.5768 13.73734080395945
COSMOS 2389             
1 27436U 02026A   09122.04541342  .00000007  00000-0 -87041-5 0  7451
2 27436  82.9463 116.7578 0048172  70.4625 290.1719 13.74732054347635
COSMOS 2398             
1 27818U 03023A   09121.99018715  .00000016  00000-0  31345-6 0  6050
2 27818  82.9467  62.8661 0032725  44.2523 316.1259 13.71953685295913
COSMOS 2407             
1 28380U 04028A   09122.26190969  .00000038  00000-0  22899-4 0  4238
2 28380  82.9614  24.8131 0040830  98.7913 261.7870 13.75841733239876
COSMOS 2414             
1 28521U 05002A   09122.44529997  .00000062  00000-0  38885-4 0  3356
2 28521  82.9455  91.6848 0041054 153.4514 206.8759 13.87345104216750
COSMOS 2429             
1 32052U 07038A   09122.11570228  .00000004  00000-0 -12540-4 0  5188
2 32052  82.9782 133.8917 0040008  57.9834 302.5198 13.74691671 82238
